STARLINK-34246          
1 64769U 25147Q   26068.75808225  .00030936  00000+0  10521-2 0  9991
2 64769  53.1589 242.3333 0000837  75.7231 284.3863 15.30206464 38767
GLOBAL-34               
1 68098U 26043A   26068.47466435  .00014018  00000+0  45822-3 0  9994
2 68098  42.0215  76.7399 0006884 289.2632  70.7460 15.31488019   538
